[{"OBJECT_NAME":"STARLINK-31971","OBJECT_ID":"2024-106N","EPOCH":"2026-03-09T03:18:33.766848","MEAN_MOTION":15.27576691,"ECCENTRICITY":0.00012285,"INCLINATION":43.0017,"RA_OF_ASC_NODE":332.4416,"ARG_OF_PERICENTER":272.0986,"MEAN_ANOMALY":87.9725,"EPHEMERIS_TYPE":0,"CLASSIFICATION_TYPE":"U","NORAD_CAT_ID":59934,"ELEMENT_SET_NO":999,"REV_AT_EPOCH":10035,"BSTAR":-4.1123542e-5,"MEAN_MOTION_DOT":-1.393e-5,"MEAN_MOTION_DDOT":0},{"OBJECT_NAME":"NOAA 17 DEB","OBJECT_ID":"2002-032AF","EPOCH":"2026-03-09T00:24:06.552000","MEAN_MOTION":15.25501717,"ECCENTRICITY":0.00030847,"INCLINATION":98.6472,"RA_OF_ASC_NODE":92.5947,"ARG_OF_PERICENTER":165.9893,"MEAN_ANOMALY":194.1428,"EPHEMERIS_TYPE":0,"CLASSIFICATION_TYPE":"U","NORAD_CAT_ID":48614,"ELEMENT_SET_NO":999,"REV_AT_EPOCH":26420,"BSTAR":0.01090047,"MEAN_MOTION_DOT":0.00286783,"MEAN_MOTION_DDOT":0}]
